[{"OBJECT_NAME":"LUSAT (LO-19)","OBJECT_ID":"1990-005G","EPOCH":"2026-03-09T14:54:14.260896","MEAN_MOTION":14.34087969,"ECCENTRICITY":0.001234,"INCLINATION":98.8938,"RA_OF_ASC_NODE":87.6461,"ARG_OF_PERICENTER":134.6824,"MEAN_ANOMALY":225.5367,"EPHEMERIS_TYPE":0,"CLASSIFICATION_TYPE":"U","NORAD_CAT_ID":20442,"ELEMENT_SET_NO":999,"REV_AT_EPOCH":88812,"BSTAR":8.4338e-5,"MEAN_MOTION_DOT":1.89e-6,"MEAN_MOTION_DDOT":0},{"OBJECT_NAME":"COSMOS 1867 COOLANT","OBJECT_ID":"1987-060E","EPOCH":"2026-03-09T02:27:15.647616","MEAN_MOTION":14.34070357,"ECCENTRICITY":0.00153199,"INCLINATION":65.0088,"RA_OF_ASC_NODE":287.3459,"ARG_OF_PERICENTER":283.0627,"MEAN_ANOMALY":76.8748,"EPHEMERIS_TYPE":0,"CLASSIFICATION_TYPE":"U","NORAD_CAT_ID":39637,"ELEMENT_SET_NO":999,"REV_AT_EPOCH":62334,"BSTAR":0.00015912878,"MEAN_MOTION_DOT":3.45e-6,"MEAN_MOTION_DDOT":0}]
